<?xml version="1.0" encoding="UTF-8"?>
<ndm xmlns:xsi="http://www.w3.org/2001/XMLSchema-instance" xsi:noNamespaceSchemaLocation="https://sanaregistry.org/r/ndmxml_unqualified/ndmxml-2.0.0-master-2.0.xsd">
<omm id="CCSDS_OMM_VERS" version="2.0">
<header><CREATION_DATE/><ORIGINATOR/></header><body><segment><metadata><OBJECT_NAME>KUIPER-00167</OBJECT_NAME><OBJECT_ID>2025-217U</OBJECT_ID><CENTER_NAME>EARTH</CENTER_NAME><REF_FRAME>TEME</REF_FRAME><TIME_SYSTEM>UTC</TIME_SYSTEM><MEAN_ELEMENT_THEORY>SGP4</MEAN_ELEMENT_THEORY></metadata><data><meanElements><EPOCH>2026-01-25T23:13:53.058144</EPOCH><MEAN_MOTION>14.79933468</MEAN_MOTION><ECCENTRICITY>.00009145</ECCENTRICITY><INCLINATION>51.8957</INCLINATION><RA_OF_ASC_NODE>234.4969</RA_OF_ASC_NODE><ARG_OF_PERICENTER>99.4716</ARG_OF_PERICENTER><MEAN_ANOMALY>260.6350</MEAN_ANOMALY></meanElements><tleParameters><EPHEMERIS_TYPE>0</EPHEMERIS_TYPE><CLASSIFICATION_TYPE>U</CLASSIFICATION_TYPE><NORAD_CAT_ID>65780</NORAD_CAT_ID><ELEMENT_SET_NO>999</ELEMENT_SET_NO><REV_AT_EPOCH>1851</REV_AT_EPOCH><BSTAR>.82383678E-3</BSTAR><MEAN_MOTION_DOT>.6065E-4</MEAN_MOTION_DOT><MEAN_MOTION_DDOT>0</MEAN_MOTION_DDOT></tleParameters></data></segment></body></omm>
<omm id="CCSDS_OMM_VERS" version="2.0">
<header><CREATION_DATE/><ORIGINATOR/></header><body><segment><metadata><OBJECT_NAME>KUIPER-00168</OBJECT_NAME><OBJECT_ID>2025-217V</OBJECT_ID><CENTER_NAME>EARTH</CENTER_NAME><REF_FRAME>TEME</REF_FRAME><TIME_SYSTEM>UTC</TIME_SYSTEM><MEAN_ELEMENT_THEORY>SGP4</MEAN_ELEMENT_THEORY></metadata><data><meanElements><EPOCH>2026-01-25T22:00:01.999584</EPOCH><MEAN_MOTION>14.84258547</MEAN_MOTION><ECCENTRICITY>.00005996</ECCENTRICITY><INCLINATION>51.8994</INCLINATION><RA_OF_ASC_NODE>217.3850</RA_OF_ASC_NODE><ARG_OF_PERICENTER>353.8773</ARG_OF_PERICENTER><MEAN_ANOMALY>278.7298</MEAN_ANOMALY></meanElements><tleParameters><EPHEMERIS_TYPE>0</EPHEMERIS_TYPE><CLASSIFICATION_TYPE>U</CLASSIFICATION_TYPE><NORAD_CAT_ID>65781</NORAD_CAT_ID><ELEMENT_SET_NO>999</ELEMENT_SET_NO><REV_AT_EPOCH>559</REV_AT_EPOCH><BSTAR>.30082509E-2</BSTAR><MEAN_MOTION_DOT>.25311E-3</MEAN_MOTION_DOT><MEAN_MOTION_DDOT>0</MEAN_MOTION_DDOT></tleParameters></data></segment></body></omm>
<omm id="CCSDS_OMM_VERS" version="2.0">
<header><CREATION_DATE/><ORIGINATOR/></header><body><segment><metadata><OBJECT_NAME>KUIPER-00169</OBJECT_NAME><OBJECT_ID>2025-217W</OBJECT_ID><CENTER_NAME>EARTH</CENTER_NAME><REF_FRAME>TEME</REF_FRAME><TIME_SYSTEM>UTC</TIME_SYSTEM><MEAN_ELEMENT_THEORY>SGP4</MEAN_ELEMENT_THEORY></metadata><data><meanElements><EPOCH>2026-01-25T22:00:01.999584</EPOCH><MEAN_MOTION>14.79959785</MEAN_MOTION><ECCENTRICITY>.00005649</ECCENTRICITY><INCLINATION>51.8996</INCLINATION><RA_OF_ASC_NODE>222.2435</RA_OF_ASC_NODE><ARG_OF_PERICENTER>99.5203</ARG_OF_PERICENTER><MEAN_ANOMALY>275.6112</MEAN_ANOMALY></meanElements><tleParameters><EPHEMERIS_TYPE>0</EPHEMERIS_TYPE><CLASSIFICATION_TYPE>U</CLASSIFICATION_TYPE><NORAD_CAT_ID>65782</NORAD_CAT_ID><ELEMENT_SET_NO>999</ELEMENT_SET_NO><REV_AT_EPOCH>495</REV_AT_EPOCH><BSTAR>.32340455E-2</BSTAR><MEAN_MOTION_DOT>.24539E-3</MEAN_MOTION_DOT><MEAN_MOTION_DDOT>0</MEAN_MOTION_DDOT></tleParameters></data></segment></body></omm>
<omm id="CCSDS_OMM_VERS" version="2.0">
<header><CREATION_DATE/><ORIGINATOR/></header><body><segment><metadata><OBJECT_NAME>KUIPER-00170</OBJECT_NAME><OBJECT_ID>2025-217X</OBJECT_ID><CENTER_NAME>EARTH</CENTER_NAME><REF_FRAME>TEME</REF_FRAME><TIME_SYSTEM>UTC</TIME_SYSTEM><MEAN_ELEMENT_THEORY>SGP4</MEAN_ELEMENT_THEORY></metadata><data><meanElements><EPOCH>2026-01-25T13:41:51.953280</EPOCH><MEAN_MOTION>14.79933140</MEAN_MOTION><ECCENTRICITY>.0001112</ECCENTRICITY><INCLINATION>51.8988</INCLINATION><RA_OF_ASC_NODE>228.7646</RA_OF_ASC_NODE><ARG_OF_PERICENTER>98.7497</ARG_OF_PERICENTER><MEAN_ANOMALY>261.3591</MEAN_ANOMALY></meanElements><tleParameters><EPHEMERIS_TYPE>0</EPHEMERIS_TYPE><CLASSIFICATION_TYPE>U</CLASSIFICATION_TYPE><NORAD_CAT_ID>65783</NORAD_CAT_ID><ELEMENT_SET_NO>999</ELEMENT_SET_NO><REV_AT_EPOCH>1856</REV_AT_EPOCH><BSTAR>.13726E-3</BSTAR><MEAN_MOTION_DOT>.825E-5</MEAN_MOTION_DOT><MEAN_MOTION_DDOT>0</MEAN_MOTION_DDOT></tleParameters></data></segment></body></omm>
<omm id="CCSDS_OMM_VERS" version="2.0">
<header><CREATION_DATE/><ORIGINATOR/></header><body><segment><metadata><OBJECT_NAME>KUIPER-00171</OBJECT_NAME><OBJECT_ID>2025-217Y</OBJECT_ID><CENTER_NAME>EARTH</CENTER_NAME><REF_FRAME>TEME</REF_FRAME><TIME_SYSTEM>UTC</TIME_SYSTEM><MEAN_ELEMENT_THEORY>SGP4</MEAN_ELEMENT_THEORY></metadata><data><meanElements><EPOCH>2026-01-24T22:40:26.859648</EPOCH><MEAN_MOTION>15.96514131</MEAN_MOTION><ECCENTRICITY>.00069147</ECCENTRICITY><INCLINATION>51.8462</INCLINATION><RA_OF_ASC_NODE>194.3341</RA_OF_ASC_NODE><ARG_OF_PERICENTER>194.8414</ARG_OF_PERICENTER><MEAN_ANOMALY>165.2396</MEAN_ANOMALY></meanElements><tleParameters><EPHEMERIS_TYPE>0</EPHEMERIS_TYPE><CLASSIFICATION_TYPE>U</CLASSIFICATION_TYPE><NORAD_CAT_ID>65784</NORAD_CAT_ID><ELEMENT_SET_NO>999</ELEMENT_SET_NO><REV_AT_EPOCH>1897</REV_AT_EPOCH><BSTAR>.23308266E-2</BSTAR><MEAN_MOTION_DOT>.1002936E-1</MEAN_MOTION_DOT><MEAN_MOTION_DDOT>.47560509E-3</MEAN_MOTION_DDOT></tleParameters></data></segment></body></omm>
<omm id="CCSDS_OMM_VERS" version="2.0">
<header><CREATION_DATE/><ORIGINATOR/></header><body><segment><metadata><OBJECT_NAME>KUIPER-00172</OBJECT_NAME><OBJECT_ID>2025-217Z</OBJECT_ID><CENTER_NAME>EARTH</CENTER_NAME><REF_FRAME>TEME</REF_FRAME><TIME_SYSTEM>UTC</TIME_SYSTEM><MEAN_ELEMENT_THEORY>SGP4</MEAN_ELEMENT_THEORY></metadata><data><meanElements><EPOCH>2026-01-25T22:31:51.074112</EPOCH><MEAN_MOTION>15.18871759</MEAN_MOTION><ECCENTRICITY>.00041245</ECCENTRICITY><INCLINATION>51.8765</INCLINATION><RA_OF_ASC_NODE>214.9999</RA_OF_ASC_NODE><ARG_OF_PERICENTER>173.0929</ARG_OF_PERICENTER><MEAN_ANOMALY>187.0107</MEAN_ANOMALY></meanElements><tleParameters><EPHEMERIS_TYPE>0</EPHEMERIS_TYPE><CLASSIFICATION_TYPE>U</CLASSIFICATION_TYPE><NORAD_CAT_ID>65785</NORAD_CAT_ID><ELEMENT_SET_NO>999</ELEMENT_SET_NO><REV_AT_EPOCH>1878</REV_AT_EPOCH><BSTAR>.13334411E-2</BSTAR><MEAN_MOTION_DOT>.27959E-3</MEAN_MOTION_DOT><MEAN_MOTION_DDOT>0</MEAN_MOTION_DDOT></tleParameters></data></segment></body></omm>
<omm id="CCSDS_OMM_VERS" version="2.0">
<header><CREATION_DATE/><ORIGINATOR/></header><body><segment><metadata><OBJECT_NAME>KUIPER-00173</OBJECT_NAME><OBJECT_ID>2025-217AA</OBJECT_ID><CENTER_NAME>EARTH</CENTER_NAME><REF_FRAME>TEME</REF_FRAME><TIME_SYSTEM>UTC</TIME_SYSTEM><MEAN_ELEMENT_THEORY>SGP4</MEAN_ELEMENT_THEORY></metadata><data><meanElements><EPOCH>2026-01-25T06:25:54.887232</EPOCH><MEAN_MOTION>14.82343836</MEAN_MOTION><ECCENTRICITY>.0001076</ECCENTRICITY><INCLINATION>51.9002</INCLINATION><RA_OF_ASC_NODE>225.0668</RA_OF_ASC_NODE><ARG_OF_PERICENTER>104.1886</ARG_OF_PERICENTER><MEAN_ANOMALY>255.9197</MEAN_ANOMALY></meanElements><tleParameters><EPHEMERIS_TYPE>0</EPHEMERIS_TYPE><CLASSIFICATION_TYPE>U</CLASSIFICATION_TYPE><NORAD_CAT_ID>65786</NORAD_CAT_ID><ELEMENT_SET_NO>999</ELEMENT_SET_NO><REV_AT_EPOCH>1858</REV_AT_EPOCH><BSTAR>.59103E-3</BSTAR><MEAN_MOTION_DOT>.455E-4</MEAN_MOTION_DOT><MEAN_MOTION_DDOT>0</MEAN_MOTION_DDOT></tleParameters></data></segment></body></omm>
<omm id="CCSDS_OMM_VERS" version="2.0">
<header><CREATION_DATE/><ORIGINATOR/></header><body><segment><metadata><OBJECT_NAME>KUIPER-00174</OBJECT_NAME><OBJECT_ID>2025-217AB</OBJECT_ID><CENTER_NAME>EARTH</CENTER_NAME><REF_FRAME>TEME</REF_FRAME><TIME_SYSTEM>UTC</TIME_SYSTEM><MEAN_ELEMENT_THEORY>SGP4</MEAN_ELEMENT_THEORY></metadata><data><meanElements><EPOCH>2026-01-25T22:00:01.999584</EPOCH><MEAN_MOTION>14.84381342</MEAN_MOTION><ECCENTRICITY>.00020393</ECCENTRICITY><INCLINATION>51.9016</INCLINATION><RA_OF_ASC_NODE>217.4188</RA_OF_ASC_NODE><ARG_OF_PERICENTER>322.9209</ARG_OF_PERICENTER><MEAN_ANOMALY>121.1807</MEAN_ANOMALY></meanElements><tleParameters><EPHEMERIS_TYPE>0</EPHEMERIS_TYPE><CLASSIFICATION_TYPE>U</CLASSIFICATION_TYPE><NORAD_CAT_ID>65787</NORAD_CAT_ID><ELEMENT_SET_NO>999</ELEMENT_SET_NO><REV_AT_EPOCH>568</REV_AT_EPOCH><BSTAR>.34595691E-2</BSTAR><MEAN_MOTION_DOT>.29247E-3</MEAN_MOTION_DOT><MEAN_MOTION_DDOT>0</MEAN_MOTION_DDOT></tleParameters></data></segment></body></omm>

</ndm>
