KUIPER-00167            
1 65780U 25217U   26025.96797521  .00006065  00000+0  82384-3 0  9998
2 65780  51.8957 234.4969 0000914  99.4716 260.6350 14.79933468 18511
KUIPER-00168            
1 65781U 25217V   26025.91668981  .00025311  00000+0  30083-2 0  9994
2 65781  51.8994 217.3850 0000599 353.8773 278.7298 14.84258547  5590
KUIPER-00169            
1 65782U 25217W   26025.91668981  .00024539  00000+0  32340-2 0  9994
2 65782  51.8996 222.2435 0000564  99.5203 275.6112 14.79959785  4957
KUIPER-00170            
1 65783U 25217X   26025.57074020  .00000825  00000+0  13726-3 0  9992
2 65783  51.8988 228.7646 0001112  98.7497 261.3591 14.79933140 18562
KUIPER-00171            
1 65784U 25217Y   26024.94475532  .01002936  47561-3  23308-2 0  9995
2 65784  51.8462 194.3341 0006914 194.8414 165.2396 15.96514131 18977
KUIPER-00172            
1 65785U 25217Z   26025.93878558  .00027959  00000+0  13334-2 0  9993
2 65785  51.8765 214.9999 0004124 173.0929 187.0107 15.18871759 18780
KUIPER-00173            
1 65786U 25217AA  26025.26799638  .00004550  00000+0  59103-3 0  9998
2 65786  51.9002 225.0668 0001076 104.1886 255.9197 14.82343836 18584
KUIPER-00174            
1 65787U 25217AB  26025.91668981  .00029247  00000+0  34596-2 0  9995
2 65787  51.9016 217.4188 0002039 322.9209 121.1807 14.84381342  5686
